ORBCOMM FM05            
1 25117U 97084F   24139.57077102  .00005752  00000+0  17509-2 0  9994
2 25117  45.0141  98.1674 0003084  12.0750 348.0174 14.42772697383558
ORBCOMM FM06            
1 25118U 97084G   24139.63149354  .00005932  00000+0  18025-2 0  9995
2 25118  45.0135  98.0413 0002218  11.7305 159.2396 14.42822076384479
ORBCOMM FM07            
1 25119U 97084H   24139.59032953  .00005331  00000+0  16268-2 0  9997
2 25119  45.0128  98.7787 0003956   8.7509 351.3410 14.42740608384466
ORBCOMM FM03            
1 25158U 98007B   24139.62171594  .00003462  00000+0  13140-2 0  9994
2 25158 107.9712  46.3417 0047638 219.4177 140.3491 14.32215442367505
ORBCOMM FM04            
1 25159U 98007C   24139.60886121  .00003444  00000+0  13034-2 0  9994
2 25159 107.9694  49.2568 0043123 217.3928 142.4207 14.32480821367671
ORBCOMM FM17            
1 25413U 98046A   24139.50846759  .00003137  00000+0  11819-2 0  9990
2 25413  44.9948 317.5753 0001564  50.0375 310.0608 14.33195398346515
ORBCOMM FM18            
1 25414U 98046B   24139.55699522  .00004272  00000+0  15051-2 0  9993
2 25414  44.9924 244.2688 0002825 119.0222 241.0909 14.35972956347648
ORBCOMM FM19            
1 25415U 98046C   24139.59638425  .00004189  00000+0  14819-2 0  9991
2 25415  44.9935 245.5060 0001558 120.4101 253.8653 14.35809866347447
