<?xml version="1.0" encoding="UTF-8"?>
<ndm xmlns:xsi="http://www.w3.org/2001/XMLSchema-instance" xsi:noNamespaceSchemaLocation="https://sanaregistry.org/r/ndmxml_unqualified/ndmxml-2.0.0-master-2.0.xsd">
<omm id="CCSDS_OMM_VERS" version="2.0">
<header><CREATION_DATE/><ORIGINATOR/></header><body><segment><metadata><OBJECT_NAME>ORBCOMM FM05</OBJECT_NAME><OBJECT_ID>1997-084F</OBJECT_ID><CENTER_NAME>EARTH</CENTER_NAME><REF_FRAME>TEME</REF_FRAME><TIME_SYSTEM>UTC</TIME_SYSTEM><MEAN_ELEMENT_THEORY>SGP4</MEAN_ELEMENT_THEORY></metadata><data><meanElements><EPOCH>2024-05-18T13:41:54.616128</EPOCH><MEAN_MOTION>14.42772697</MEAN_MOTION><ECCENTRICITY>.0003084</ECCENTRICITY><INCLINATION>45.0141</INCLINATION><RA_OF_ASC_NODE>98.1674</RA_OF_ASC_NODE><ARG_OF_PERICENTER>12.0750</ARG_OF_PERICENTER><MEAN_ANOMALY>348.0174</MEAN_ANOMALY></meanElements><tleParameters><EPHEMERIS_TYPE>0</EPHEMERIS_TYPE><CLASSIFICATION_TYPE>U</CLASSIFICATION_TYPE><NORAD_CAT_ID>25117</NORAD_CAT_ID><ELEMENT_SET_NO>999</ELEMENT_SET_NO><REV_AT_EPOCH>38355</REV_AT_EPOCH><BSTAR>.17509E-2</BSTAR><MEAN_MOTION_DOT>.5752E-4</MEAN_MOTION_DOT><MEAN_MOTION_DDOT>0</MEAN_MOTION_DDOT></tleParameters></data></segment></body></omm>
<omm id="CCSDS_OMM_VERS" version="2.0">
<header><CREATION_DATE/><ORIGINATOR/></header><body><segment><metadata><OBJECT_NAME>ORBCOMM FM06</OBJECT_NAME><OBJECT_ID>1997-084G</OBJECT_ID><CENTER_NAME>EARTH</CENTER_NAME><REF_FRAME>TEME</REF_FRAME><TIME_SYSTEM>UTC</TIME_SYSTEM><MEAN_ELEMENT_THEORY>SGP4</MEAN_ELEMENT_THEORY></metadata><data><meanElements><EPOCH>2024-05-18T15:09:21.041856</EPOCH><MEAN_MOTION>14.42822076</MEAN_MOTION><ECCENTRICITY>.0002218</ECCENTRICITY><INCLINATION>45.0135</INCLINATION><RA_OF_ASC_NODE>98.0413</RA_OF_ASC_NODE><ARG_OF_PERICENTER>11.7305</ARG_OF_PERICENTER><MEAN_ANOMALY>159.2396</MEAN_ANOMALY></meanElements><tleParameters><EPHEMERIS_TYPE>0</EPHEMERIS_TYPE><CLASSIFICATION_TYPE>U</CLASSIFICATION_TYPE><NORAD_CAT_ID>25118</NORAD_CAT_ID><ELEMENT_SET_NO>999</ELEMENT_SET_NO><REV_AT_EPOCH>38447</REV_AT_EPOCH><BSTAR>.18025E-2</BSTAR><MEAN_MOTION_DOT>.5932E-4</MEAN_MOTION_DOT><MEAN_MOTION_DDOT>0</MEAN_MOTION_DDOT></tleParameters></data></segment></body></omm>
<omm id="CCSDS_OMM_VERS" version="2.0">
<header><CREATION_DATE/><ORIGINATOR/></header><body><segment><metadata><OBJECT_NAME>ORBCOMM FM07</OBJECT_NAME><OBJECT_ID>1997-084H</OBJECT_ID><CENTER_NAME>EARTH</CENTER_NAME><REF_FRAME>TEME</REF_FRAME><TIME_SYSTEM>UTC</TIME_SYSTEM><MEAN_ELEMENT_THEORY>SGP4</MEAN_ELEMENT_THEORY></metadata><data><meanElements><EPOCH>2024-05-18T14:10:04.471392</EPOCH><MEAN_MOTION>14.42740608</MEAN_MOTION><ECCENTRICITY>.0003956</ECCENTRICITY><INCLINATION>45.0128</INCLINATION><RA_OF_ASC_NODE>98.7787</RA_OF_ASC_NODE><ARG_OF_PERICENTER>8.7509</ARG_OF_PERICENTER><MEAN_ANOMALY>351.3410</MEAN_ANOMALY></meanElements><tleParameters><EPHEMERIS_TYPE>0</EPHEMERIS_TYPE><CLASSIFICATION_TYPE>U</CLASSIFICATION_TYPE><NORAD_CAT_ID>25119</NORAD_CAT_ID><ELEMENT_SET_NO>999</ELEMENT_SET_NO><REV_AT_EPOCH>38446</REV_AT_EPOCH><BSTAR>.16268E-2</BSTAR><MEAN_MOTION_DOT>.5331E-4</MEAN_MOTION_DOT><MEAN_MOTION_DDOT>0</MEAN_MOTION_DDOT></tleParameters></data></segment></body></omm>
<omm id="CCSDS_OMM_VERS" version="2.0">
<header><CREATION_DATE/><ORIGINATOR/></header><body><segment><metadata><OBJECT_NAME>ORBCOMM FM03</OBJECT_NAME><OBJECT_ID>1998-007B</OBJECT_ID><CENTER_NAME>EARTH</CENTER_NAME><REF_FRAME>TEME</REF_FRAME><TIME_SYSTEM>UTC</TIME_SYSTEM><MEAN_ELEMENT_THEORY>SGP4</MEAN_ELEMENT_THEORY></metadata><data><meanElements><EPOCH>2024-05-18T14:55:16.257216</EPOCH><MEAN_MOTION>14.32215442</MEAN_MOTION><ECCENTRICITY>.0047638</ECCENTRICITY><INCLINATION>107.9712</INCLINATION><RA_OF_ASC_NODE>46.3417</RA_OF_ASC_NODE><ARG_OF_PERICENTER>219.4177</ARG_OF_PERICENTER><MEAN_ANOMALY>140.3491</MEAN_ANOMALY></meanElements><tleParameters><EPHEMERIS_TYPE>0</EPHEMERIS_TYPE><CLASSIFICATION_TYPE>U</CLASSIFICATION_TYPE><NORAD_CAT_ID>25158</NORAD_CAT_ID><ELEMENT_SET_NO>999</ELEMENT_SET_NO><REV_AT_EPOCH>36750</REV_AT_EPOCH><BSTAR>.1314E-2</BSTAR><MEAN_MOTION_DOT>.3462E-4</MEAN_MOTION_DOT><MEAN_MOTION_DDOT>0</MEAN_MOTION_DDOT></tleParameters></data></segment></body></omm>
<omm id="CCSDS_OMM_VERS" version="2.0">
<header><CREATION_DATE/><ORIGINATOR/></header><body><segment><metadata><OBJECT_NAME>ORBCOMM FM04</OBJECT_NAME><OBJECT_ID>1998-007C</OBJECT_ID><CENTER_NAME>EARTH</CENTER_NAME><REF_FRAME>TEME</REF_FRAME><TIME_SYSTEM>UTC</TIME_SYSTEM><MEAN_ELEMENT_THEORY>SGP4</MEAN_ELEMENT_THEORY></metadata><data><meanElements><EPOCH>2024-05-18T14:36:45.608544</EPOCH><MEAN_MOTION>14.32480821</MEAN_MOTION><ECCENTRICITY>.0043123</ECCENTRICITY><INCLINATION>107.9694</INCLINATION><RA_OF_ASC_NODE>49.2568</RA_OF_ASC_NODE><ARG_OF_PERICENTER>217.3928</ARG_OF_PERICENTER><MEAN_ANOMALY>142.4207</MEAN_ANOMALY></meanElements><tleParameters><EPHEMERIS_TYPE>0</EPHEMERIS_TYPE><CLASSIFICATION_TYPE>U</CLASSIFICATION_TYPE><NORAD_CAT_ID>25159</NORAD_CAT_ID><ELEMENT_SET_NO>999</ELEMENT_SET_NO><REV_AT_EPOCH>36767</REV_AT_EPOCH><BSTAR>.13034E-2</BSTAR><MEAN_MOTION_DOT>.3444E-4</MEAN_MOTION_DOT><MEAN_MOTION_DDOT>0</MEAN_MOTION_DDOT></tleParameters></data></segment></body></omm>
<omm id="CCSDS_OMM_VERS" version="2.0">
<header><CREATION_DATE/><ORIGINATOR/></header><body><segment><metadata><OBJECT_NAME>ORBCOMM FM17</OBJECT_NAME><OBJECT_ID>1998-046A</OBJECT_ID><CENTER_NAME>EARTH</CENTER_NAME><REF_FRAME>TEME</REF_FRAME><TIME_SYSTEM>UTC</TIME_SYSTEM><MEAN_ELEMENT_THEORY>SGP4</MEAN_ELEMENT_THEORY></metadata><data><meanElements><EPOCH>2024-05-18T12:12:11.599776</EPOCH><MEAN_MOTION>14.33195398</MEAN_MOTION><ECCENTRICITY>.0001564</ECCENTRICITY><INCLINATION>44.9948</INCLINATION><RA_OF_ASC_NODE>317.5753</RA_OF_ASC_NODE><ARG_OF_PERICENTER>50.0375</ARG_OF_PERICENTER><MEAN_ANOMALY>310.0608</MEAN_ANOMALY></meanElements><tleParameters><EPHEMERIS_TYPE>0</EPHEMERIS_TYPE><CLASSIFICATION_TYPE>U</CLASSIFICATION_TYPE><NORAD_CAT_ID>25413</NORAD_CAT_ID><ELEMENT_SET_NO>999</ELEMENT_SET_NO><REV_AT_EPOCH>34651</REV_AT_EPOCH><BSTAR>.11819E-2</BSTAR><MEAN_MOTION_DOT>.3137E-4</MEAN_MOTION_DOT><MEAN_MOTION_DDOT>0</MEAN_MOTION_DDOT></tleParameters></data></segment></body></omm>
<omm id="CCSDS_OMM_VERS" version="2.0">
<header><CREATION_DATE/><ORIGINATOR/></header><body><segment><metadata><OBJECT_NAME>ORBCOMM FM18</OBJECT_NAME><OBJECT_ID>1998-046B</OBJECT_ID><CENTER_NAME>EARTH</CENTER_NAME><REF_FRAME>TEME</REF_FRAME><TIME_SYSTEM>UTC</TIME_SYSTEM><MEAN_ELEMENT_THEORY>SGP4</MEAN_ELEMENT_THEORY></metadata><data><meanElements><EPOCH>2024-05-18T13:22:04.387008</EPOCH><MEAN_MOTION>14.35972956</MEAN_MOTION><ECCENTRICITY>.0002825</ECCENTRICITY><INCLINATION>44.9924</INCLINATION><RA_OF_ASC_NODE>244.2688</RA_OF_ASC_NODE><ARG_OF_PERICENTER>119.0222</ARG_OF_PERICENTER><MEAN_ANOMALY>241.0909</MEAN_ANOMALY></meanElements><tleParameters><EPHEMERIS_TYPE>0</EPHEMERIS_TYPE><CLASSIFICATION_TYPE>U</CLASSIFICATION_TYPE><NORAD_CAT_ID>25414</NORAD_CAT_ID><ELEMENT_SET_NO>999</ELEMENT_SET_NO><REV_AT_EPOCH>34764</REV_AT_EPOCH><BSTAR>.15051E-2</BSTAR><MEAN_MOTION_DOT>.4272E-4</MEAN_MOTION_DOT><MEAN_MOTION_DDOT>0</MEAN_MOTION_DDOT></tleParameters></data></segment></body></omm>
<omm id="CCSDS_OMM_VERS" version="2.0">
<header><CREATION_DATE/><ORIGINATOR/></header><body><segment><metadata><OBJECT_NAME>ORBCOMM FM19</OBJECT_NAME><OBJECT_ID>1998-046C</OBJECT_ID><CENTER_NAME>EARTH</CENTER_NAME><REF_FRAME>TEME</REF_FRAME><TIME_SYSTEM>UTC</TIME_SYSTEM><MEAN_ELEMENT_THEORY>SGP4</MEAN_ELEMENT_THEORY></metadata><data><meanElements><EPOCH>2024-05-18T14:18:47.599200</EPOCH><MEAN_MOTION>14.35809866</MEAN_MOTION><ECCENTRICITY>.0001558</ECCENTRICITY><INCLINATION>44.9935</INCLINATION><RA_OF_ASC_NODE>245.5060</RA_OF_ASC_NODE><ARG_OF_PERICENTER>120.4101</ARG_OF_PERICENTER><MEAN_ANOMALY>253.8653</MEAN_ANOMALY></meanElements><tleParameters><EPHEMERIS_TYPE>0</EPHEMERIS_TYPE><CLASSIFICATION_TYPE>U</CLASSIFICATION_TYPE><NORAD_CAT_ID>25415</NORAD_CAT_ID><ELEMENT_SET_NO>999</ELEMENT_SET_NO><REV_AT_EPOCH>34744</REV_AT_EPOCH><BSTAR>.14819E-2</BSTAR><MEAN_MOTION_DOT>.4189E-4</MEAN_MOTION_DOT><MEAN_MOTION_DDOT>0</MEAN_MOTION_DDOT></tleParameters></data></segment></body></omm>

</ndm>
